NORAD_CAT_ID,OBJECT_NAME,OBJECT_TYPE,EPOCH,MEAN_MOTION,ECCENTRICITY,INCLINATION,RA_OF_ASC_NODE,ARG_OF_PERICENTER,MEAN_ANOMALY,BSTAR,MEAN_MOTION_DOT,MEAN_MOTION_DDOT,TLE_LINE0,TLE_LINE1,TLE_LINE2,SEMIMAJOR_AXIS,PERIOD,APOGEE,PERIGEE,DECAYED
53183.0,STARLINK-4268,PAYLOAD,2023-02-15 16:05:41,15.08865199,0.000109,53.217,108.098,106.4165,253.6947,0.00036317,5.501e-05,0.0,0 STARLINK-4268,1 53183U 22083BD  23046.67061837  .00005501  00000-0  36317-3 0  9992,2 53183  53.2170 108.0980 0001090 106.4165 253.6947 15.08865199 33698,6917.803,95.436,540.422,538.914,0.0
53183.0,STARLINK-4268,PAYLOAD,2023-02-16 11:10:18,15.0886556,9.16e-05,53.2176,104.5322,111.23,248.879,7.7913e-05,9.53e-06,0.0,0 STARLINK-4268,1 53183U 22083BD  23047.46549663  .00000953  00000-0  77913-4 0  9992,2 53183  53.2176 104.5322 0000916 111.2300 248.8790 15.08865560 33814,6917.802,95.436,540.301,539.034,0.0
53183.0,STARLINK-4268,PAYLOAD,2023-02-16 12:45:42,15.08859348,0.0001619,53.2171,104.2292,96.7575,263.3601,0.00050194,7.714e-05,0.0,0 STARLINK-4268,1 53183U 22083BD  23047.53174035  .00007714  00000-0  50194-3 0  9990,2 53183  53.2171 104.2292 0001619  96.7575 263.3601 15.08859348 33184,6917.821,95.436,540.806,538.566,0.0
53183.0,STARLINK-4268,PAYLOAD,2023-02-16 20:42:40,15.0880504,0.0002527,53.2172,102.7426,81.3266,278.8012,-0.00036066,-6.018e-05,0.0,0 STARLINK-4268,1 53183U 22083BD  23047.86296861 -.00006018  00000-0 -36066-3 0  9998,2 53183  53.2172 102.7426 0002527  81.3266 278.8012 15.08805040 33236,6917.987,95.44,541.6,538.104,0.0
53183.0,STARLINK-4268,PAYLOAD,2023-02-17 07:50:21,15.08820809,0.0001322,53.2179,100.6675,80.1915,279.9226,-0.00020511,-3.549e-05,0.0,0 STARLINK-4268,1 53183U 22083BD  23048.32664280 -.00003549  00000-0 -20511-3 0  9998,2 53183  53.2179 100.6675 0001322  80.1915 279.9226 15.08820809 33943,6917.939,95.439,540.719,538.889,0.0
53183.0,STARLINK-4268,PAYLOAD,2023-02-17 12:36:30,15.08836409,0.0001182,53.2169,99.7721,79.3655,280.7471,-9.5307e-05,-1.804e-05,0.0,0 STARLINK-4268,1 53183U 22083BD  23048.52535527 -.00001804  00000-0 -95307-4 0  9999,2 53183  53.2169  99.7721 0001182  79.3655 280.7471 15.08836409 33335,6917.891,95.438,540.574,538.939,0.0
53183.0,STARLINK-4268,PAYLOAD,2023-02-17 20:33:26,15.088257,0.0001363,53.2173,98.2868,75.8928,284.2215,-0.00014096,-2.53e-05,0.0,0 STARLINK-4268,1 53183U 22083BD  23048.85656228 -.00002530  00000-0 -14096-3 0  9999,2 53183  53.2173  98.2868 0001363  75.8928 284.2215 15.08825700 33383,6917.924,95.438,540.732,538.846,0.0
53183.0,STARLINK-4268,PAYLOAD,2023-02-18 12:27:18,15.08838823,0.0001424,53.2169,95.3134,76.1589,283.9562,0.00024932,3.682e-05,0.0,0 STARLINK-4268,1 53183U 22083BD  23049.51896498  .00003682  00000-0  24932-3 0  9995,2 53183  53.2169  95.3134 0001424  76.1589 283.9562 15.08838823 33489,6917.884,95.438,540.734,538.764,0.0
53183.0,STARLINK-4268,PAYLOAD,2023-02-19 12:18:05,15.08855728,0.0001493,53.2167,90.8522,70.6416,289.4738,0.00052915,8.147e-05,0.0,0 STARLINK-4268,1 53183U 22083BD  23050.51256195  .00008147  00000-0  52915-3 0  9994,2 53183  53.2167  90.8522 0001493  70.6416 289.4738 15.08855728 33638,6917.832,95.437,540.73,538.664,0.0
53183.0,STARLINK-4268,PAYLOAD,2023-02-19 20:15:01,15.08836573,0.0001767,53.2168,89.3661,80.6204,279.4988,1.4321e-05,-6e-07,0.0,0 STARLINK-4268,1 53183U 22083BD  23050.84376832 -.00000060  00000-0  14321-4 0  9998,2 53183  53.2168  89.3661 0001767  80.6204 279.4988 15.08836573 34326,6917.891,95.438,540.978,538.533,0.0
53183.0,STARLINK-4268,PAYLOAD,2023-02-20 08:58:06,15.08849488,0.0001429,53.2161,86.9858,81.1594,278.956,0.00035321,5.339e-05,0.0,0 STARLINK-4268,1 53183U 22083BD  23051.37368070  .00005339  00000-0  35321-3 0  9997,2 53183  53.2161  86.9858 0001429  81.1594 278.9560 15.08849488 34401,6917.851,95.437,540.705,538.728,0.0
53183.0,STARLINK-4268,PAYLOAD,2023-02-20 12:08:52,15.08855475,0.0001415,53.2167,86.3921,78.827,281.2881,0.00068249,0.00010595,0.0,0 STARLINK-4268,1 53183U 22083BD  23051.50615969  .00010595  00000-0  68249-3 0  9999,2 53183  53.2167  86.3921 0001415  78.8270 281.2881 15.08855475 33787,6917.833,95.437,540.677,538.719,0.0
53183.0,STARLINK-4268,PAYLOAD,2023-02-21 02:27:20,15.08850105,0.0001443,53.2167,83.7147,83.5238,276.5918,0.00078018,0.00012154,0.0,0 STARLINK-4268,1 53183U 22083BD  23052.10232245  .00012154  00000-0  78018-3 0  9996,2 53183  53.2167  83.7147 0001443  83.5238 276.5918 15.08850105 34511,6917.85,95.437,540.713,538.716,0.0
53183.0,STARLINK-4268,PAYLOAD,2023-02-21 13:35:02,15.08862409,0.0001377,53.2175,81.6329,88.0077,272.1073,0.00096578,0.00015125,0.0,0 STARLINK-4268,1 53183U 22083BD  23052.56599750  .00015125  00000-0  96578-3 0  9995,2 53183  53.2175  81.6329 0001377  88.0077 272.1073 15.08862409 33946,6917.812,95.436,540.629,538.724,0.0
53183.0,STARLINK-4268,PAYLOAD,2023-02-21 18:21:12,15.08838363,0.0001663,53.2174,80.7408,88.0499,272.0683,8.697e-05,1.096e-05,0.0,0 STARLINK-4268,1 53183U 22083BD  23052.76472294  .00001096  00000-0  86970-4 0  9998,2 53183  53.2174  80.7408 0001663  88.0499 272.0683 15.08838363 34612,6917.885,95.438,540.901,538.6,0.0
53183.0,STARLINK-4268,PAYLOAD,2023-02-22 13:25:49,15.08854724,0.0001373,53.218,77.1725,89.9254,270.1895,0.00054154,8.345e-05,0.0,0 STARLINK-4268,1 53183U 22083BD  23053.55959764  .00008345  00000-0  54154-3 0  9990,2 53183  53.2180  77.1725 0001373  89.9254 270.1895 15.08854724 34093,6917.835,95.437,540.65,538.751,0.0
53183.0,STARLINK-4268,PAYLOAD,2023-02-22 18:11:58,15.08827966,0.0001075,53.2186,76.2815,107.3637,252.7473,-0.00041431,-6.873e-05,0.0,0 STARLINK-4268,1 53183U 22083BD  23053.75832101 -.00006873  00000-0 -41431-3 0  9997,2 53183  53.2186  76.2815 0001075 107.3637 252.7473 15.08827966 34128,6917.917,95.438,540.526,539.038,0.0
53183.0,STARLINK-4268,PAYLOAD,2023-02-23 06:55:04,15.08835031,0.000136,53.218,73.9013,96.3299,263.7848,0.00014519,2.023e-05,0.0,0 STARLINK-4268,1 53183U 22083BD  23054.28824603  .00002023  00000-0  14519-3 0  9992,2 53183  53.2180  73.9013 0001360  96.3299 263.7848 15.08835031 34843,6917.896,95.438,540.701,538.82,0.0
53183.0,STARLINK-4268,PAYLOAD,2023-02-23 11:41:13,15.08840422,0.0001193,53.2184,73.009,91.4277,268.6852,0.0004563,6.982e-05,0.0,0 STARLINK-4268,1 53183U 22083BD  23054.48696562  .00006982  00000-0  45630-3 0  9991,2 53183  53.2184  73.0090 0001193  91.4277 268.6852 15.08840422 34231,6917.879,95.438,540.569,538.919,0.0
53183.0,STARLINK-4268,PAYLOAD,2023-02-23 18:02:46,15.0883769,0.0001387,53.2182,71.8195,90.1159,269.9992,0.00054179,8.345e-05,0.0,0 STARLINK-4268,1 53183U 22083BD  23054.75192825  .00008345  00000-0  54179-3 0  9997,2 53183  53.2182  71.8195 0001387  90.1159 269.9992 15.08837690 34277,6917.887,95.438,540.712,538.793,0.0
53183.0,STARLINK-4268,PAYLOAD,2023-02-24 11:32:00,15.08858786,0.000125,53.2176,68.549,92.9909,267.1226,0.00075849,0.0001181,0.0,0 STARLINK-4268,1 53183U 22083BD  23055.48056219  .00011810  00000-0  75849-3 0  9992,2 53183  53.2176  68.5490 0001250  92.9909 267.1226 15.08858786 35026,6917.823,95.436,540.553,538.823,0.0
53183.0,STARLINK-4268,PAYLOAD,2023-02-24 17:53:33,15.08839308,9.43e-05,53.2174,67.3594,105.67,254.4396,2.1063e-05,4.8e-07,0.0,0 STARLINK-4268,1 53183U 22083BD  23055.74552476  .00000048  00000-0  21063-4 0  9998,2 53183  53.2174  67.3594 0000943 105.6700 254.4396 15.08839308 35065,6917.883,95.438,540.4,539.095,0.0
53183.0,STARLINK-4268,PAYLOAD,2023-02-25 12:58:11,15.08840791,0.0001247,53.2172,63.7913,101.9955,258.1177,0.00040496,6.163e-05,0.0,0 STARLINK-4268,1 53183U 22083BD  23056.54040823  .00006163  00000-0  40496-3 0  9999,2 53183  53.2172  63.7913 0001247 101.9955 258.1177 15.08840791 34545,6917.878,95.438,540.606,538.88,0.0
53183.0,STARLINK-4268,PAYLOAD,2023-02-25 17:44:20,15.08834312,0.0001368,53.2173,62.8992,98.9632,261.1515,0.00027468,4.086e-05,0.0,0 STARLINK-4268,1 53183U 22083BD  23056.73913096  .00004086  00000-0  27468-3 0  9997,2 53183  53.2173  62.8992 0001368  98.9632 261.1515 15.08834312 35211,6917.898,95.438,540.709,538.816,0.0
53183.0,STARLINK-4268,PAYLOAD,2023-02-26 06:27:25,15.08855223,0.0001147,53.2169,60.5198,104.9943,255.1176,0.00077823,0.00012124,0.0,0 STARLINK-4268,1 53183U 22083BD  23057.26904693  .00012124  00000-0  77823-3 0  9991,2 53183  53.2169  60.5198 0001147 104.9943 255.1176 15.08855223 35295,6917.834,95.437,540.492,538.905,0.0
53183.0,STARLINK-4268,PAYLOAD,2023-02-26 17:35:07,15.0885045,0.0001298,53.2174,58.4414,64.1078,296.0048,0.00053611,8.257e-05,0.0,0 STARLINK-4268,1 53183U 22083BD  23057.73272845  .00008257  00000-0  53611-3 0  9991,2 53183  53.2174  58.4414 0001298  64.1078 296.0048 15.08850450 35368,6917.848,95.437,540.611,538.816,0.0
53183.0,STARLINK-4268,PAYLOAD,2023-02-26 23:56:40,15.08844685,0.0001731,53.217,57.2498,92.8957,267.2233,0.00027132,4.033e-05,0.0,0 STARLINK-4268,1 53183U 22083BD  23057.99769049  .00004033  00000-0  27132-3 0  9993,2 53183  53.2170  57.2498 0001731  92.8957 267.2233 15.08844685 35403,6917.866,95.437,540.929,538.534,0.0
53183.0,STARLINK-4268,PAYLOAD,2023-02-27 06:18:12,15.08851298,0.0001681,53.2184,56.0601,93.1174,267.0011,0.00041925,6.393e-05,0.0,0 STARLINK-4268,1 53183U 22083BD  23058.26264942  .00006393  00000-0  41925-3 0  9993,2 53183  53.2184  56.0601 0001681  93.1174 267.0011 15.08851298 34803,6917.846,95.437,540.874,538.548,0.0
53183.0,STARLINK-4268,PAYLOAD,2023-02-27 11:04:21,15.08867041,0.0001631,53.2188,55.1664,102.9469,257.1705,0.0008386,0.00013093,0.0,0 STARLINK-4268,1 53183U 22083BD  23058.46136558  .00013093  00000-0  83860-3 0  9995,2 53183  53.2188  55.1664 0001631 102.9469 257.1705 15.08867041 35474,6917.798,95.436,540.791,538.534,0.0
53183.0,STARLINK-4268,PAYLOAD,2023-02-28 10:55:07,15.08895351,0.0001291,53.2186,50.7084,96.138,263.976,0.0013311,0.00020992,0.0,0 STARLINK-4268,1 53183U 22083BD  23059.45494616  .00020992  00000-0  13311-2 0  9996,2 53183  53.2186  50.7084 0001291  96.1380 263.9760 15.08895351 34983,6917.711,95.434,540.469,538.683,0.0
